mediatitle,place_name,address,positive_ratio,latitude,longitude
(아는 건 별로 없지만) 가족입니다,고흥우주발사전망대,전라남도 고흥군 영남면 해맞이로 840,0.5833333333333334,34.585051,127.49236
(아는 건 별로 없지만) 가족입니다,파도리해수욕장,충청남도 태안군 소원면 파도길 63-12,0.6,36.738979,126.13356
가면,담양 관방제림,전라남도 담양군 담양읍 객사7길 37,1.0,35.3234778,126.991321
가면,죽녹원,전라남도 담양군 담양읍 죽녹원로 119,1.0,35.326613,126.985409
가면,메타세쿼이아 가로수길,전라남도 담양군 담양읍 학동리 633,0.8823529411764706,35.3251724,127.009247
간택 - 여인들의 전쟁,광한루원,전라북도 남원시 요천로 1447,1.0,35.403918,127.379758
개와 늑대의 시간,스플라스 리솜,충청남도 예산군 덕산면 온천단지3로 45-7,0.8571428571428571,36.693924,126.65602
갯마을 차차차,사방기념공원,경상북도 포항시 북구 흥해읍 해안로 1801,0.9230769230769232,36.1646885,129.3956102
거침없이 하이킥,해비치호텔앤드리조트,제주특별자치도 서귀포시 표선면 민속해안로 537,0.7333333333333333,33.3235675,126.844477
검법남녀 2,부용대,경상북도 안동시 풍천면 광덕솔밭길 72,0.8333333333333334,36.542914,128.51663
겨울연가,남이섬,강원도 춘천시 남산면 남이섬길 1,0.6666666666666666,37.789935,127.52581
겨울연가,외도 보타니아,경상남도 거제시 일운면 외도길 17,0.5,34.769699,128.70886
경우의 수,달책빵,제주특별자치도 제주시 구좌읍 대수길 10-12,0.7894736842105263,33.536409,126.83943
경우의 수,임진고택,제주특별자치도 제주시 구좌읍 상도로 16-13,1.0,33.513302,126.8635
경우의 수,소심한책방,제주특별자치도 제주시 구좌읍 종달동길 29-6,0.8235294117647058,33.491445,126.90309
경우의 수,용눈이오름,제주특별자치도 제주시 구좌읍 종달리 산 38,0.9375,33.458681,126.83005
경우의 수,술의 식물원,제주특별자치도 제주시 구좌읍 중산간동로 2253,0.6,33.471779,126.78376
경우의 수,책방소리소문,제주특별자치도 제주시 한경면 저지동길 8-31,0.875,33.358009,126.27169
경우의 수,서쪽가게,제주특별자치도 제주시 한림읍 한림로 372-7,0.7058823529411765,33.393359,126.24059
계룡선녀전,밀양역,경상남도 밀양시 중앙로 62,0.4545454545454545,35.47456,128.771186
계룡선녀전,부석사,경상북도 영주시 부석면 부석사로 345,0.7777777777777778,36.998776,128.68753
계룡선녀전,목포역,전라남도 목포시 영산로 98,0.6153846153846154,34.791049,126.38661
계룡선녀전,신원사,충청남도 공주시 계룡면 신원사동길 1,0.8888888888888888,36.335189,127.18399
계룡선녀전,부소산성,충청남도 부여군 부여읍 부소로 15,0.8461538461538461,36.287052,126.91527
겨울연가,남이섬,강원도 춘천시 남산면 남이섬길 1,0.6666666666666666,37.789935,127.52581
공작도시,뮤지엄 산,강원도 원주시 지정면 오크밸리2길 260,0.7647058823529411,37.418903,127.82302
구경이,소금산 출렁다리,강원도 원주시 지정면 소금산길 12,0.8333333333333334,37.368213,127.824977
구경이,동피랑 벽화마을,경상남도 통영시 동피랑1길 6-18,0.7692307692307693,34.845641,128.427523
구미호뎐,상족암군립공원,경상남도 고성군 하이면 덕명리 50-1,1.0,34.904154,128.15034
군검사 도베르만,익산 교도소 세트장,전라북도 익산시 성당면 함낭로 207,0.8333333333333334,36.069334,126.93158
궁,동궁과 월지,경상북도 경주시 원화로 102,0.9333333333333332,35.83429,129.226584
궁,경기전,전라북도 전주시 완산구 태조로 44,0.9444444444444444,35.815488,127.149771
궁,씨에스호텔앤리조트,제주특별자치도 서귀포시 중문관광로 196,0.6470588235294118,33.243147,126.42002
그 해 우리는,온빛자연휴양림,충청남도 논산시 벌곡면 황룡재로 480-113,1.0,36.2029503,127.2520346
그냥 사랑하는 사이,임권택영화박물관,부산광역시 해운대구 우동 센텀중앙로 55,1.0,35.173219,129.12853
그래서 나는 안티팬과 결혼했다,백도해변,강원도 고성군 죽왕면 문암진리 19-22,0.5714285714285714,38.301267,128.5463
김비서가 왜 그럴까,3.1운동계단,대구광역시 중구 동산동 881-3,1.0,35.8672435,128.584875
김비서가 왜 그럴까,서문시장,대구광역시 중구 큰장로26길 45 서문시장,0.5384615384615384,35.868857,128.580818
꽃보다 남자,설악해변,강원도 양양군 강현면 뒷나루2길 5-8,0.8571428571428571,38.131216,128.62292
꽃보다 남자,아난티 남해,경상남도 남해군 남면 남서대로1179번길 40-109,0.8461538461538461,34.776699,127.85179
꽃보다 남자,그랜드머큐어앰배서더 창원,경상남도 창원시 성산구 원이대로 332,0.5454545454545454,35.239262,128.65532
꽃보다 남자,휘닉스제주 섭지코지,제주특별자치도 서귀포시 성산읍 섭지코지로 107,0.4285714285714285,33.429078,126.93397
궁,씨에스호텔앤리조트,제주특별자치도 서귀포시 중문관광로 196,0.6470588235294118,33.243147,126.42002
꽃보다 남자,독립기념관,충청남도 천안시 동남구 목천읍 삼방로 95,0.8125,36.783538,127.2232
나 홀로 그대,알로하서프,강원도 강릉시 옥계면 헌화로 221-4,0.4,37.635477,129.044679
나를 사랑한 스파이,제주국제공항,제주특별자치도 제주시 공항로 2,0.8125,33.506548,126.49304
나빌레라,합천 영상 테마파크,경상남도 합천군 용주면 합천호수로 757,0.75,35.5489346,128.072475
나빌레라,당진문예의전당,충청남도 당진시 무수동2길 25-21,0.6666666666666666,36.890144,126.63795
나의 나라,반곡지,경상북도 경산시 남산면 반곡리 246,0.8461538461538461,35.780498,128.806454
나의 나라,궁남지,충청남도 부여군 부여읍 궁남로 52,0.9333333333333332,36.269619,126.91224
나의 나라,성흥산 사랑나무,충청남도 부여군 임천면 성흥로97번길 167,0.7333333333333333,36.1971825,126.898347
나의 아저씨,회동 솔향 캠핑장,강원도 정선군 정선읍 기리왕산로 570-5,0.8571428571428571,37.412692,128.58402
나의 해방일지,성환역,충청남도 천안시 서북구 성환읍 성환1로 237-5,1.0,36.915954,127.12685
날씨가 좋으면 찾아가겠어요,예미역,강원도 정선군 신동읍 함백로 55,1.0,37.212373,128.64813
날씨가 좋으면 찾아가겠어요,환벽정,충청북도 괴산군 칠성면 사은리,1.0,36.750742,127.83656
남자친구,심곡항,강원도 강릉시 강동면 심곡리 157-1,0.6,37.665245,129.053082
남자친구,라라무리,강원도 강릉시 연곡면 진고개로 2551-18,1.0,37.856793,128.8181
남자친구,외옹치 바다향기로,강원도 속초시 대포동 712,1.0,38.181699,128.610715
남자친구,롯데리조트 속초,강원도 속초시 대포항길 186,0.875,38.180679,128.61177
내게 거짓말을 해봐,베어트리파크,세종특별자치시 전동면 신송로 217,0.25,36.670592,127.209267
공작도시,뮤지엄 산,강원도 원주시 지정면 오크밸리2길 260,0.7647058823529411,37.418903,127.82302
"단, 하나의 사랑",합덕성당,충청남도 당진시 합덕읍 합덕성당2길 22,0.9230769230769232,36.792792,126.78554
달리와 감자탕,오크밸리 리조트,강원도 원주시 지정면 오크밸리1길 66,0.7222222222222222,37.434485,127.817496
"단, 하나의 사랑",합덕성당,충청남도 당진시 합덕읍 합덕성당2길 22,0.9230769230769232,36.792792,126.78554
나의 나라,반곡지,경상북도 경산시 남산면 반곡리 246,0.8461538461538461,35.780498,128.806454
검법남녀 2,부용대,경상북도 안동시 풍천면 광덕솔밭길 72,0.8333333333333334,36.542914,128.51663
달의 연인 - 보보경심 려,아홉산숲,부산광역시 기장군 철마면 웅천리 520-10,0.4666666666666667,35.2879959,129.169638
달의 연인 - 보보경심 려,사성암,전라남도 구례군 문척면 사성암길 303,0.8333333333333334,35.180003,127.4806
간택 - 여인들의 전쟁,광한루원,전라북도 남원시 요천로 1447,1.0,35.403918,127.379758
달의 연인 - 보보경심 려,내소사,전라북도 부안군 진서면 내소사로 243,0.9411764705882352,35.617773,126.58724
달의 연인 - 보보경심 려,백제문화단지,충청남도 부여군 규암면 백제문로 455,0.7692307692307693,36.3069,126.9066
달의 연인 - 보보경심 려,온달관광지,충청북도 단양군 영춘면 온달로 23,0.6153846153846154,37.0628902,128.49172
군검사 도베르만,익산 교도소 세트장,전라북도 익산시 성당면 함낭로 207,0.8333333333333334,36.069334,126.93158
더 케이투,기지포해수욕장,충청남도 태안군 안면읍 해안관광로 745-19,0.6428571428571429,36.562608,126.32187
군검사 도베르만,익산 교도소 세트장,전라북도 익산시 성당면 함낭로 207,0.8333333333333334,36.069334,126.93158
나빌레라,합천 영상 테마파크,경상남도 합천군 용주면 합천호수로 757,0.75,35.5489346,128.072475
도도솔솔라라솔,청춘게스트하우스,전라남도 목포시 달성길 39,0.8,34.792199,126.37692
도도솔솔라라솔,유달산,전라남도 목포시 죽교동 산 27-1,1.0,34.789202,126.37829
도시남녀의 사랑법,이이남스튜디오,광주광역시 남구 제중로47번길 10,0.7692307692307693,35.139174,126.91284
돈꽃,을숙도,부산광역시 사하구 하단동 1207,1.0,35.10662,128.94309
드림,죽성드림세트장,부산광역시 기장군 기장읍 죽성리 134-7,0.9285714285714286,35.240998,129.24845
따뜻한 말 한마디,장사도 해상공원 까멜리아,경상남도 통영시 한산면 장사도길 55,0.8,34.713673,128.55885
땐뽀걸즈,고현버스터미널,경상남도 거제시 고현천로 10,0.5,34.89104,128.62426
땐뽀걸즈,바람의언덕,경상남도 거제시 남부면 갈곶리 산 14-47 도장포마을,0.6428571428571429,34.74336,128.6633
땐뽀걸즈,광안리해수욕장,부산광역시 수영구 광안해변로 219,1.0,35.153308,129.118862
또! 오해영,낙산 해수욕장,강원도 양양군 강현면 해맞이길 59,1.0,38.1164806,128.63426
또! 오해영,신성리 갈대밭,충청남도 서천군 한산면 신성리 125-1,0.6875,36.068336,126.86074
나의 나라,궁남지,충청남도 부여군 부여읍 궁남로 52,0.9333333333333332,36.269619,126.91224
라이브,중앙 경찰학교,충청북도 충주시 수안보면 수회리로 138,0.8,36.877166,127.981807
라이프 온 마스,양산종합운동장,경상남도 양산시 양산대로 849,1.0,35.344926,129.032214
라이프 온 마스,대전 근현대사 전시관,대전광역시 중구 중앙로 101,0.5714285714285714,36.3266855,127.420912
달의 연인 - 보보경심 려,아홉산숲,부산광역시 기장군 철마면 웅천리 520-10,0.4666666666666667,35.2879959,129.169638
라이프 온 마스,감천문화마을,부산광역시 사하구 감내2로 203,0.7272727272727273,35.097412,129.010584
라이프 온 마스,국립해양박물관,부산광역시 영도구 해양로301번길 45,0.75,35.078654,129.080216
나빌레라,합천 영상 테마파크,경상남도 합천군 용주면 합천호수로 757,0.75,35.5489346,128.072475
런온,동해망상해변한옥촌,강원도 동해시 동해대로 6370,0.5,37.602611,129.07614
런온,이가리 닻전망대,경상북도 포항시 북구 청하면 이가리 산 67-3,1.0,36.188061,129.37937
런온,전주영화의거리,전라북도 전주시 완산구 고사동 전주객사4길,1.0,35.821257,127.14415
런온,성산보말죽칼국수 성산점,제주특별자치도 서귀포시 성산읍 해맞이해안로 2725,0.6666666666666666,33.471696,126.91715
거침없이 하이킥,해비치호텔앤드리조트,제주특별자치도 서귀포시 표선면 민속해안로 537,0.7333333333333333,33.3235675,126.844477
나를 사랑한 스파이,제주국제공항,제주특별자치도 제주시 공항로 2,0.8125,33.506548,126.49304
레버리지:사기조작단,제주신화월드,제주특별자치도 서귀포시 안덕면 신화역사로304번길 38,1.0,33.302652,126.31653
로망스,여좌천,경상남도 창원시 진해구 여좌동 217,1.0,35.154337,128.65927
또! 오해영,낙산 해수욕장,강원도 양양군 강현면 해맞이길 59,1.0,38.1164806,128.63426
로봇이 아니야,여차몽돌해수욕장,경상남도 거제시 남부면 여차길 22,0.75,34.713819,128.62677
로봇이 아니야,수산자연산횟집,경상남도 거제시 동부면 거제대로 1080-12,0.8181818181818182,34.777783,128.6529
로봇이 아니야,거제수협구조라공판장,경상남도 거제시 일운면 구조라로 59,1.0,34.804164,128.69623
나의 나라,성흥산 사랑나무,충청남도 부여군 임천면 성흥로97번길 167,0.7333333333333333,36.1971825,126.898347
마이 걸,롯데호텔 제주,제주특별자치도 서귀포시 중문관광로72번길 35,0.875,33.2483112,126.410594
(아는 건 별로 없지만) 가족입니다,파도리해수욕장,충청남도 태안군 소원면 파도길 63-12,0.6,36.738979,126.13356
마이 시크릿 호텔,포레스트 리솜,충청북도 제천시 백운면 금봉로 365,0.8125,37.15796,128.04624
내게 거짓말을 해봐,베어트리파크,세종특별자치시 전동면 신송로 217,0.25,36.670592,127.209267
마인,세이지우드 홍천,강원도 홍천군 두촌면 광석로 898-160,0.9,37.886097,128.11847
나를 사랑한 스파이,제주국제공항,제주특별자치도 제주시 공항로 2,0.8125,33.506548,126.49304
맨도롱 또똣,봄날,제주특별자치도 제주시 애월읍 애월로1길 25,1.0,33.462462,126.309591
맨투맨,사우스케이프오너스클럽,경상남도 남해군 창선면 흥선로 1545,0.6153846153846154,34.836501,128.07449
맨홀-이상한 나라의 필,등명해변,강원도 강릉시 강동면 정동진리 440-7,0.8125,37.704451,129.01646
멜랑꼴리아,휘게비엔씨,강원도 강릉시 주문진읍 신리천로 318-24,1.0,37.878647,128.79909
달리와 감자탕,오크밸리 리조트,강원도 원주시 지정면 오크밸리1길 66,0.7222222222222222,37.434485,127.817496
멜랑꼴리아,국립중앙과학관,대전광역시 유성구 대덕대로 481,0.75,36.376229,127.37525
꽃보다 남자,휘닉스제주 섭지코지,제주특별자치도 서귀포시 성산읍 섭지코지로 107,0.4285714285714285,33.429078,126.93397
나를 사랑한 스파이,제주국제공항,제주특별자치도 제주시 공항로 2,0.8125,33.506548,126.49304
멜랑꼴리아,아르떼뮤지엄 제주,제주특별자치도 제주시 애월읍 어림비로 478,0.8,33.396696,126.34505
나빌레라,합천 영상 테마파크,경상남도 합천군 용주면 합천호수로 757,0.75,35.5489346,128.072475
모범형사,문창동광천순대,대전광역시 중구 대전천서로 337,0.875,36.320564,127.435988
미남이시네요,공세리성당,충청남도 아산시 인주면 공세리성당길 10,0.8888888888888888,36.883404,126.914041
미스터 션샤인,황매산,경상남도 산청군 차황면 법평리 산 1,0.8235294117647058,35.486018,127.97475
미스터 션샤인,화왕산성,경상남도 창녕군 창녕읍 옥천리 산322,1.0,35.546106,128.537389
나빌레라,합천 영상 테마파크,경상남도 합천군 용주면 합천호수로 757,0.75,35.5489346,128.072475
미스터 션샤인,삼릉숲,경상북도 경주시 배동,1.0,35.798733,129.208281
미스터 션샤인,만휴정,경상북도 안동시 길안면 묵계하리길 42,0.6666666666666666,36.41043,128.9099
미스터 션샤인,문화공감수정,부산광역시 동구 홍곡로 75,0.9333333333333332,35.125713,129.042622
미스터 션샤인,부안영상테마파크,전라북도 부안군 반석면 격포로 309-64,0.6,35.620633,126.48247
미스터 션샤인,선샤인스튜디오,충청남도 논산시 연무읍 봉황로 90,0.5714285714285714,36.102539,127.10657
미스터 션샤인,운보의 집,충청북도 청주시 청원구 내수읍 형동2길 92-41,0.4615384615384615,36.692197,127.5651
궁,씨에스호텔앤리조트,제주특별자치도 서귀포시 중문관광로 196,0.6470588235294118,33.243147,126.42002
또! 오해영,신성리 갈대밭,충청남도 서천군 한산면 신성리 125-1,0.6875,36.068336,126.86074
궁,경기전,전라북도 전주시 완산구 태조로 44,0.9444444444444444,35.815488,127.149771
발칙하게 고고,단콩,세종특별자치시 조치원읍 섭골길 35-4 단콩,0.9,36.613906,127.28924
발칙하게 고고,세종호수공원,세종특별자치시 호수공원길 155,0.75,36.497909,127.2729
발칙하게 고고,녹수원글램핑,충청남도 공주시 유구읍 금계산로 919-11,0.6666666666666666,36.62859,126.96982
또! 오해영,낙산 해수욕장,강원도 양양군 강현면 해맞이길 59,1.0,38.1164806,128.63426
밥 잘 사주는 예쁜 누나,협재해수욕장,제주특별자치도 제주시 한림읍 한림로 329-10,0.9166666666666666,33.394065,126.239527
달의 연인 - 보보경심 려,아홉산숲,부산광역시 기장군 철마면 웅천리 520-10,0.4666666666666667,35.2879959,129.169638
간택 - 여인들의 전쟁,광한루원,전라북도 남원시 요천로 1447,1.0,35.403918,127.379758
미스터 션샤인,부안영상테마파크,전라북도 부안군 반석면 격포로 309-64,0.6,35.620633,126.48247
나를 사랑한 스파이,제주국제공항,제주특별자치도 제주시 공항로 2,0.8125,33.506548,126.49304
따뜻한 말 한마디,장사도 해상공원 까멜리아,경상남도 통영시 한산면 장사도길 55,0.8,34.713673,128.55885
병원선,대우병원,경상남도 거제시 두모길 16,0.4375,34.871977,128.72219
겨울연가,외도 보타니아,경상남도 거제시 일운면 외도길 17,0.5,34.769699,128.70886
복수가 돌아왔다,중앙탑 사적공원,충청북도 충주시 중앙탑면 중앙탑길 112-28 일원,0.9230769230769232,37.016768,127.8665
부부의 세계,강릉역,강원도 강릉시 용지로 176,0.8,37.764117,128.89882
부부의 세계,하조대 해수욕장,강원도 양양군 현북면 하광정리,0.8666666666666667,38.024387,128.724074
부암동 복수자들,유리트리트,강원도 홍천군 서면 한서로 1468-55,0.9444444444444444,37.636579,127.63422
뷰티 인사이드,산토리니,강원도 춘천시 동면 순환대로 1154-97,0.6666666666666666,37.8913993,127.7742846
궁,동궁과 월지,경상북도 경주시 원화로 102,0.9333333333333332,35.83429,129.226584
뷰티 인사이드,아난티 코브,부산광역시 기장군 기장읍 기장해안로 268-31,0.7692307692307693,35.200166,129.229042
내게 거짓말을 해봐,베어트리파크,세종특별자치시 전동면 신송로 217,0.25,36.670592,127.209267
빅마우스,순천만 국가정원,전라남도 순천시 국가정원1호길 47,0.6666666666666666,34.929045,127.498897
군검사 도베르만,익산 교도소 세트장,전라북도 익산시 성당면 함낭로 207,0.8333333333333334,36.069334,126.93158
빈센조,대구오페라하우스,대구광역시 북구 호암로 15,1.0,35.88348,128.59216
구경이,동피랑 벽화마을,경상남도 통영시 동피랑1길 6-18,0.7692307692307693,34.845641,128.427523
사내맞선,스카이베이호텔 경포,강원도 강릉시 해안로 476,0.6666666666666666,37.804363,128.90769
달리와 감자탕,오크밸리 리조트,강원도 원주시 지정면 오크밸리1길 66,0.7222222222222222,37.434485,127.817496
사내맞선,듀레베이커리 호암점,충청북도 충주시 중원대로 3250,0.8823529411764706,36.958536,127.92437
사랑비,쎄라비음악다방,대구광역시 중구 국채보상로102길 60,1.0,35.86789,128.5844
사랑비,순천드라마촬영장,전라남도 순천시 비례골길 24,0.8888888888888888,34.957729,127.53832
사랑의 불시착,별마로천문대,강원도 영월군 영월읍 천문대길 397,0.9285714285714286,37.198816,128.486792
사랑의 불시착,코모도호텔 부산,부산광역시 중구 중구로 151,0.8666666666666667,35.109159,129.035447
사랑의 불시착,청산수목원,충청남도 태안군 연꽃길 70,0.5294117647058824,36.68861,126.2968
사랑의 불시착,비내섬,충청북도 충주시 소태면 복탄리 908,0.7333333333333333,37.105907,127.815528
복수가 돌아왔다,중앙탑 사적공원,충청북도 충주시 중앙탑면 중앙탑길 112-28 일원,0.9230769230769232,37.016768,127.8665
사랑의 불시착,탄금호 무지개길,충청북도 충주시 중앙탑면 중앙탑길 150,1.0,37.022702,127.863486
사랑의 온도,순천만습지,전라남도 순천시 순천만길 513-25,0.8125,34.88597,127.50903
사랑의 온도,향일암,전라남도 여수시 돌산읍 향일암로 60,0.7647058823529411,34.591599,127.80385
군검사 도베르만,익산 교도소 세트장,전라북도 익산시 성당면 함낭로 207,0.8333333333333334,36.069334,126.93158
남자친구,심곡항,강원도 강릉시 강동면 심곡리 157-1,0.6,37.665245,129.053082
꽃보다 남자,설악해변,강원도 양양군 강현면 뒷나루2길 5-8,0.8571428571428571,38.131216,128.62292
사이코지만 괜찮아,사니다카페,강원도 원주시 호저면 칠봉로 109-128,0.3888888888888889,37.406814,127.91437
사이코지만 괜찮아,옥정호,전라북도 임실군 운암면 운종리 473-9,1.0,35.602023,127.11288
"사임당, 빛의 일기",하슬라아트월드,강원도 강릉시 강동면 율곡로 1441,0.6363636363636364,37.706127,129.00911
구경이,동피랑 벽화마을,경상남도 통영시 동피랑1길 6-18,0.7692307692307693,34.845641,128.427523
겨울연가,남이섬,강원도 춘천시 남산면 남이섬길 1,0.6666666666666666,37.789935,127.52581
세상에서 제일 예쁜 내 딸,거례리 사랑나무,강원도 화천군 하남면 거례리 484-2,1.0,38.07271,127.6875
쇼핑왕 루이,천마산에코하우스,부산광역시 서구 천마산로 342,1.0,35.09609,129.0174
땐뽀걸즈,광안리해수욕장,부산광역시 수영구 광안해변로 219,1.0,35.153308,129.118862
쇼핑왕 루이,보수동 책방 골목,부산광역시 중구 대청로 67-1,0.8666666666666667,35.10332,129.026803
쇼핑왕 루이,동백섬,부산광역시 해운대구 동백로 99,0.7857142857142857,35.154498,129.152555
군검사 도베르만,익산 교도소 세트장,전라북도 익산시 성당면 함낭로 207,0.8333333333333334,36.069334,126.93158
스물다섯 스물하나,경주역,경상북도 경주시 원화로 266,0.5555555555555556,35.844454,129.21787
스물다섯 스물하나,한벽굴,전라북도 전주시 완산구 교동,1.0,35.8118781,127.1608628
스물다섯 스물하나,맹꽁이 오락실,전라북도 전주시 완산구 동문길 6,1.0,35.8195707,127.153426
스카이캐슬,소노펠리체 빌리지 비발디파크,강원도 홍천군 서면 한치골길 541-123,0.9166666666666666,37.665888,127.68403
스토브리그,대가야문화누리,경상북도 고령군 대가야읍 왕릉로 30,1.0,35.723602,128.26315
시간,파크 하얏트 부산,부산광역시 해운대구 마린시티1로 51,0.7368421052631579,35.15657,129.1419
남자친구,심곡항,강원도 강릉시 강동면 심곡리 157-1,0.6,37.665245,129.053082
시그널,빨차카페,강원도 강릉시 옥계면 헌화로 217,0.8666666666666667,37.634838,129.044795
군검사 도베르만,익산 교도소 세트장,전라북도 익산시 성당면 함낭로 207,0.8333333333333334,36.069334,126.93158
시그널,국립법무병원,충청남도 공주시 반포면 봉곡리 반포초교길 253,0.2,36.412694,127.2387
시지프스: the myth,벡스코,부산광역시 해운대구 APEC로 55,0.8571428571428571,35.1688706,129.135456
미남이시네요,공세리성당,충청남도 아산시 인주면 공세리성당길 10,0.8888888888888888,36.883404,126.914041
나빌레라,합천 영상 테마파크,경상남도 합천군 용주면 합천호수로 757,0.75,35.5489346,128.072475
궁,씨에스호텔앤리조트,제주특별자치도 서귀포시 중문관광로 196,0.6470588235294118,33.243147,126.42002
마이 걸,롯데호텔 제주,제주특별자치도 서귀포시 중문관광로72번길 35,0.875,33.2483112,126.410594
마이 시크릿 호텔,포레스트 리솜,충청북도 제천시 백운면 금봉로 365,0.8125,37.15796,128.04624
시크릿 가든,사려니 숲길,제주특별자치도 제주시 조천읍 교래리 산 137-1,0.9166666666666666,33.423076,126.626845
미스터 션샤인,운보의 집,충청북도 청주시 청원구 내수읍 형동2길 92-41,0.4615384615384615,36.692197,127.5651
땐뽀걸즈,광안리해수욕장,부산광역시 수영구 광안해변로 219,1.0,35.153308,129.118862
신데렐라와 네 명의 기사,대관령 양떼목장,강원도 평창군 대관령면 대관령마루길 483-32,1.0,37.689736,128.753045
맨투맨,사우스케이프오너스클럽,경상남도 남해군 창선면 흥선로 1545,0.6153846153846154,34.836501,128.07449
신데렐라와 네 명의 기사,각원사,충청남도 천안시 동남구 각원사길 245,0.8421052631578947,36.83441,127.1968
간택 - 여인들의 전쟁,광한루원,전라북도 남원시 요천로 1447,1.0,35.403918,127.379758
군검사 도베르만,익산 교도소 세트장,전라북도 익산시 성당면 함낭로 207,0.8333333333333334,36.069334,126.93158
쌈 마이웨이,호천문화플랫폼,부산광역시 부산진구 엄광로 491,0.8571428571428571,35.144303,129.051203
쌍갑포차,고석정,강원도 철원군 동송읍 태봉로 1825,0.6923076923076923,38.186301,127.287536
쌍갑포차,경암동 철길마을,전라북도 군산시 경촌4길 14,0.75,35.981291,126.737028
쌍갑포차,구룡마을 대나무숲,전라북도 익산시 금마면 신용리 560,0.5,36.014599,127.046024
나의 나라,성흥산 사랑나무,충청남도 부여군 임천면 성흥로97번길 167,0.7333333333333333,36.1971825,126.898347
또! 오해영,낙산 해수욕장,강원도 양양군 강현면 해맞이길 59,1.0,38.1164806,128.63426
검법남녀 2,부용대,경상북도 안동시 풍천면 광덕솔밭길 72,0.8333333333333334,36.542914,128.51663
아름다웠던 우리에게,탑정호수변생태공원,충청남도 논산시 부적면 충곡리 287-8,1.0,36.19184,127.1724
나의 나라,반곡지,경상북도 경산시 남산면 반곡리 246,0.8461538461538461,35.780498,128.806454
거침없이 하이킥,해비치호텔앤드리조트,제주특별자치도 서귀포시 표선면 민속해안로 537,0.7333333333333333,33.3235675,126.844477
맨투맨,사우스케이프오너스클럽,경상남도 남해군 창선면 흥선로 1545,0.6153846153846154,34.836501,128.07449
부암동 복수자들,유리트리트,강원도 홍천군 서면 한서로 1468-55,0.9444444444444444,37.636579,127.63422
구경이,동피랑 벽화마을,경상남도 통영시 동피랑1길 6-18,0.7692307692307693,34.845641,128.427523
아홉수 소년,묵호등대전망대,강원도 동해시 해맞이길 289,1.0,37.554268,129.1185
신데렐라와 네 명의 기사,대관령 양떼목장,강원도 평창군 대관령면 대관령마루길 483-32,1.0,37.689736,128.753045
악의 마음을 읽는 자들,직탕폭포,강원도 철원군 동송읍 장흥리 336-1,0.6666666666666666,38.20945,127.2655
군검사 도베르만,익산 교도소 세트장,전라북도 익산시 성당면 함낭로 207,0.8333333333333334,36.069334,126.93158
악의 마음을 읽는 자들,의림지,충청북도 제천시 모산동 241,0.75,37.17197,128.2093
알함브라 궁전의 추억,씨마크 호텔,강원도 강릉시 해안로406번길 2,0.7142857142857143,37.79799,128.9154
나빌레라,합천 영상 테마파크,경상남도 합천군 용주면 합천호수로 757,0.75,35.5489346,128.072475
나빌레라,합천 영상 테마파크,경상남도 합천군 용주면 합천호수로 757,0.75,35.5489346,128.072475
내게 거짓말을 해봐,베어트리파크,세종특별자치시 전동면 신송로 217,0.25,36.670592,127.209267
어느 날 우리 집 현관으로 멸망이 들어왔다,경주월드,경상북도 경주시 보문로 544,0.9444444444444444,35.835594,129.282884
어느 날 우리 집 현관으로 멸망이 들어왔다,외돌개,제주특별자치도 서귀포시 서홍동 791,1.0,33.239982,126.545446
어느 날 우리 집 현관으로 멸망이 들어왔다,한담해안산책로,제주특별자치도 제주시 애월읍 곽지리 1359,0.7142857142857143,33.45463,126.3074
공작도시,뮤지엄 산,강원도 원주시 지정면 오크밸리2길 260,0.7647058823529411,37.418903,127.82302
여름 향기,명봉역,전라남도 보성군 노동면 예재로 384,0.5,34.827785,127.075526
여신강림,설리스카이워크,경상남도 남해군 미조면 송정리 산352-4,0.75,34.70878,128.0226
마이 걸,롯데호텔 제주,제주특별자치도 서귀포시 중문관광로72번길 35,0.875,33.2483112,126.410594
역도요정 김복주,옥순봉,충청북도 제천시 수산면 옥순봉로 342,0.8,36.93968,128.2393
겨울연가,남이섬,강원도 춘천시 남산면 남이섬길 1,0.6666666666666666,37.789935,127.52581
연애의 발견,연화도 출렁다리,경상남도 통영시 욕지면 연화리 산2,0.6666666666666666,34.638922,128.371628
열두밤,정동진역,강원도 강릉시 강동면 정동역길 17,1.0,37.69142,129.0329
열혈사제,여수갯벌노을마을,전라남도 여수시 소라면 서부로 785-24 장척마을회관,0.8,34.790242,127.568009
미남이시네요,공세리성당,충청남도 아산시 인주면 공세리성당길 10,0.8888888888888888,36.883404,126.914041
군검사 도베르만,익산 교도소 세트장,전라북도 익산시 성당면 함낭로 207,0.8333333333333334,36.069334,126.93158
오 마이 레이디,월정사,강원도 평창군 진부면 오대산로 374-8,1.0,37.731807,128.592508
오 마이 레이디,월정사,강원도 평창군 진부면 오대산로 374-8,1.0,37.731807,128.592508
꽃보다 남자,휘닉스제주 섭지코지,제주특별자치도 서귀포시 성산읍 섭지코지로 107,0.4285714285714285,33.429078,126.93397
나빌레라,합천 영상 테마파크,경상남도 합천군 용주면 합천호수로 757,0.75,35.5489346,128.072475
오월의 청춘,가실성당,경상북도 칠곡군 왜관읍 가실1길 1,0.9,35.9366,128.4053
사랑비,쎄라비음악다방,대구광역시 중구 국채보상로102길 60,1.0,35.86789,128.5844
오월의 청춘,부강성당,세종특별자치시 부강면 부강4길 33,1.0,36.530588,127.36972
사랑비,순천드라마촬영장,전라남도 순천시 비례골길 24,0.8888888888888888,34.957729,127.53832
오월의 청춘,남원랜드,전라북도 남원시 양림길 58-13,1.0,35.40303,127.3924
간택 - 여인들의 전쟁,광한루원,전라북도 남원시 요천로 1447,1.0,35.403918,127.379758
옥탑방 왕세자,마이산탑사,전라북도 진안군 마령면 마이산남로 367,0.9411764705882352,35.758494,127.411297
옷소매 붉은 끝동,보성열화정,전라남도 보성군 득량면 오봉리,0.5833333333333334,34.7637719,127.1878779
간택 - 여인들의 전쟁,광한루원,전라북도 남원시 요천로 1447,1.0,35.403918,127.379758
옷소매 붉은 끝동,문헌서원,충청남도 서천군 기산면 서원로172번길 66,0.9090909090909092,36.0918,126.7855
나의 나라,성흥산 사랑나무,충청남도 부여군 임천면 성흥로97번길 167,0.7333333333333333,36.1971825,126.898347
미스터 션샤인,황매산,경상남도 산청군 차황면 법평리 산 1,0.8235294117647058,35.486018,127.97475
나의 나라,성흥산 사랑나무,충청남도 부여군 임천면 성흥로97번길 167,0.7333333333333333,36.1971825,126.898347
왜 오수재인가,강남1984,강원도 춘천시 남춘로36번길 8,0.7333333333333333,37.86394,127.7322
군검사 도베르만,익산 교도소 세트장,전라북도 익산시 성당면 함낭로 207,0.8333333333333334,36.069334,126.93158
우리들의 블루스,모슬포중앙시장,제주특별자치도 서귀포시 대정읍 영서중로13번길 9-8,0.6,33.2219344,126.2546171
우리들의 블루스,월대천,제주특별자치도 제주시 내도동 898,1.0,33.4929205,126.4361809
우리들의 블루스,신두리 해수욕장,충청남도 태안군 원북면 신두해변길 201-54,0.8461538461538461,36.845289,126.196708
운명처럼 널 사랑해,곤리도,경상남도 통영시 산양읍 곤리리 174-16,1.0,34.782517,128.37111
사랑의 불시착,별마로천문대,강원도 영월군 영월읍 천문대길 397,0.9285714285714286,37.198816,128.486792
원 더 우먼,대전근현대사전시관,대전광역시 중구 중앙로 101,0.5714285714285714,36.3266855,127.420912
멜랑꼴리아,휘게비엔씨,강원도 강릉시 주문진읍 신리천로 318-24,1.0,37.878647,128.79909
부암동 복수자들,유리트리트,강원도 홍천군 서면 한서로 1468-55,0.9444444444444444,37.636579,127.63422
월간 집,황리단길,경상북도 경주시 태종로 746,0.7142857142857143,35.836842,129.20966
유미의 세포들,엄마손막국수,강원도 강릉시 운정길 40,1.0,37.783952,128.88272
사내맞선,스카이베이호텔 경포,강원도 강릉시 해안로 476,0.6666666666666666,37.804363,128.90769
유미의 세포들,카페 인어,제주특별자치도 제주시 한림읍 한림해안로 584,0.8823529411764706,33.440378,126.276511
유미의 세포들,제일반점,충청남도 부여군 초촌면 초촌로6번길 13,0.5454545454545454,36.26299,127.01996
나를 사랑한 스파이,제주국제공항,제주특별자치도 제주시 공항로 2,0.8125,33.506548,126.49304
부암동 복수자들,유리트리트,강원도 홍천군 서면 한서로 1468-55,0.9444444444444444,37.636579,127.63422
응답하라 1988,경주신문왕릉,경상북도 경주시 배반동 453-1,1.0,35.817958,129.24609
궁,동궁과 월지,경상북도 경주시 원화로 102,0.9333333333333332,35.83429,129.226584
스물다섯 스물하나,경주역,경상북도 경주시 원화로 266,0.5555555555555556,35.844454,129.21787
응답하라 1988,얄개분식,충청남도 서산시 해미면 읍성마을4길 24,0.9090909090909092,36.710661,126.54614
나빌레라,합천 영상 테마파크,경상남도 합천군 용주면 합천호수로 757,0.75,35.5489346,128.072475
내게 거짓말을 해봐,베어트리파크,세종특별자치시 전동면 신송로 217,0.25,36.670592,127.209267
이웃집 꽃미남,동산포해변 야영장,강원도 양양군 현남면 동산리 90-35,0.5,37.97813,128.75952
군검사 도베르만,익산 교도소 세트장,전라북도 익산시 성당면 함낭로 207,0.8333333333333334,36.069334,126.93158
꽃보다 남자,휘닉스제주 섭지코지,제주특별자치도 서귀포시 성산읍 섭지코지로 107,0.4285714285714285,33.429078,126.93397
나를 사랑한 스파이,제주국제공항,제주특별자치도 제주시 공항로 2,0.8125,33.506548,126.49304
자이언트,동명동성당,강원도 속초시 영랑로7길 10-5,0.9090909090909092,38.21326,128.595325
나빌레라,합천 영상 테마파크,경상남도 합천군 용주면 합천호수로 757,0.75,35.5489346,128.072475
사랑비,순천드라마촬영장,전라남도 순천시 비례골길 24,0.8888888888888888,34.957729,127.53832
또! 오해영,신성리 갈대밭,충청남도 서천군 한산면 신성리 125-1,0.6875,36.068336,126.86074
달리와 감자탕,오크밸리 리조트,강원도 원주시 지정면 오크밸리1길 66,0.7222222222222222,37.434485,127.817496
궁,씨에스호텔앤리조트,제주특별자치도 서귀포시 중문관광로 196,0.6470588235294118,33.243147,126.42002
겨울연가,남이섬,강원도 춘천시 남산면 남이섬길 1,0.6666666666666666,37.789935,127.52581
간택 - 여인들의 전쟁,광한루원,전라북도 남원시 요천로 1447,1.0,35.403918,127.379758
저글러스,연미스튜디오,전라북도 전주시 완산구 팔달로 22-2,1.0,35.804675,127.14935
간택 - 여인들의 전쟁,광한루원,전라북도 남원시 요천로 1447,1.0,35.403918,127.379758
나를 사랑한 스파이,제주국제공항,제주특별자치도 제주시 공항로 2,0.8125,33.506548,126.49304
절대 그이,삼탄아트마인,강원도 정선군 고한읍 함백산로 1445-44,0.7894736842105263,37.185266,128.88212
라이프 온 마스,감천문화마을,부산광역시 사하구 감내2로 203,0.7272727272727273,35.097412,129.010584
달의 연인 - 보보경심 려,백제문화단지,충청남도 부여군 규암면 백제문로 455,0.7692307692307693,36.3069,126.9066
검법남녀 2,부용대,경상북도 안동시 풍천면 광덕솔밭길 72,0.8333333333333334,36.542914,128.51663
조선로코 녹두전,수선루,전라북도 진안군 마령면 강정리 산 57,1.0,35.745616,127.34532
나의 나라,궁남지,충청남도 부여군 부여읍 궁남로 52,0.9333333333333332,36.269619,126.91224
군검사 도베르만,익산 교도소 세트장,전라북도 익산시 성당면 함낭로 207,0.8333333333333334,36.069334,126.93158
질투의 화신,대천해수욕장,충청남도 보령시 머드로 123,0.7777777777777778,36.313427,126.51139
아홉수 소년,묵호등대전망대,강원도 동해시 해맞이길 289,1.0,37.554268,129.1185
천국의 계단,경강역 (폐역),강원도 춘천시 남산면 서백길 62-52,1.0,37.842858,127.55054
천원짜리 변호사,도롱이연못,강원도 정선군 사북읍 사북리 도롱이연못,1.0,37.1892,128.810875
철인왕후,병산서원,경상북도 안동시 풍천면 병산길 386,0.7777777777777778,36.54056,128.55275
나의 나라,궁남지,충청남도 부여군 부여읍 궁남로 52,0.9333333333333332,36.269619,126.91224
첫사랑은 처음이라서,전주고속버스터미널,전라북도 전주시 덕진구 가리내로 70,0.8333333333333334,35.834512,127.12918
간택 - 여인들의 전쟁,광한루원,전라북도 남원시 요천로 1447,1.0,35.403918,127.379758
부암동 복수자들,유리트리트,강원도 홍천군 서면 한서로 1468-55,0.9444444444444444,37.636579,127.63422
질투의 화신,대천해수욕장,충청남도 보령시 머드로 123,0.7777777777777778,36.313427,126.51139
최강 배달꾼,거진해수욕장,강원도 고성군 거진읍 거진리 22-59,0.6363636363636364,38.443074,128.45517
군검사 도베르만,익산 교도소 세트장,전라북도 익산시 성당면 함낭로 207,0.8333333333333334,36.069334,126.93158
달의 연인 - 보보경심 려,사성암,전라남도 구례군 문척면 사성암길 303,0.8333333333333334,35.180003,127.4806
간택 - 여인들의 전쟁,광한루원,전라북도 남원시 요천로 1447,1.0,35.403918,127.379758
추리의 여왕,안도르,대전광역시 중구 선화로 148,0.875,36.331374,127.42335
원 더 우먼,대전근현대사전시관,대전광역시 중구 중앙로 101,0.5714285714285714,36.3266855,127.420912
부암동 복수자들,유리트리트,강원도 홍천군 서면 한서로 1468-55,0.9444444444444444,37.636579,127.63422
간택 - 여인들의 전쟁,광한루원,전라북도 남원시 요천로 1447,1.0,35.403918,127.379758
부부의 세계,강릉역,강원도 강릉시 용지로 176,0.8,37.764117,128.89882
달리와 감자탕,오크밸리 리조트,강원도 원주시 지정면 오크밸리1길 66,0.7222222222222222,37.434485,127.817496
크로스,미즈제일여성병원,대전광역시 유성구 계룡로 126,0.15,36.352533,127.3443
맨홀-이상한 나라의 필,등명해변,강원도 강릉시 강동면 정동진리 440-7,0.8125,37.704451,129.01646
달리와 감자탕,오크밸리 리조트,강원도 원주시 지정면 오크밸리1길 66,0.7222222222222222,37.434485,127.817496
나빌레라,합천 영상 테마파크,경상남도 합천군 용주면 합천호수로 757,0.75,35.5489346,128.072475
절대 그이,삼탄아트마인,강원도 정선군 고한읍 함백산로 1445-44,0.7894736842105263,37.185266,128.88212
태양의 후예,태양의후예 태백세트장,강원도 태백시 통동 산 67-38,0.8333333333333334,37.154824,129.04035
또! 오해영,신성리 갈대밭,충청남도 서천군 한산면 신성리 125-1,0.6875,36.068336,126.86074
달리와 감자탕,오크밸리 리조트,강원도 원주시 지정면 오크밸리1길 66,0.7222222222222222,37.434485,127.817496
악의 마음을 읽는 자들,직탕폭포,강원도 철원군 동송읍 장흥리 336-1,0.6666666666666666,38.20945,127.2655
펜트하우스 3,부산역,부산광역시 동구 중앙대로 206,0.6875,35.115181,129.0412
군검사 도베르만,익산 교도소 세트장,전라북도 익산시 성당면 함낭로 207,0.8333333333333334,36.069334,126.93158
오 마이 레이디,월정사,강원도 평창군 진부면 오대산로 374-8,1.0,37.731807,128.592508
남자친구,라라무리,강원도 강릉시 연곡면 진고개로 2551-18,1.0,37.856793,128.8181
푸른 바다의 전설,소노벨 비발디파크,강원도 홍천군 서면 한치골길 262,0.5454545454545454,37.648231,127.684097
푸른 바다의 전설,문경새재 도립공원,경상북도 문경시 문경읍 새재로 932,1.0,36.761562,128.076718
푸른 바다의 전설,아쿠아플라넷 여수,전라남도 여수시 오동도로 61-11,0.4705882352941176,34.746475,127.748335
꽃보다 남자,휘닉스제주 섭지코지,제주특별자치도 서귀포시 성산읍 섭지코지로 107,0.4285714285714285,33.429078,126.93397
푸른 바다의 전설,메이즈랜드,제주특별자치도 제주시 구좌읍 비자림로 2134-47,0.8571428571428571,33.488697,126.800866
우리들의 블루스,신두리 해수욕장,충청남도 태안군 원북면 신두해변길 201-54,0.8461538461538461,36.845289,126.196708
풍선껌,강문해변,강원도 강릉시 창해로350번길 5,0.9285714285714286,37.79663,128.917612
신데렐라와 네 명의 기사,대관령 양떼목장,강원도 평창군 대관령면 대관령마루길 483-32,1.0,37.689736,128.753045
달의 연인 - 보보경심 려,내소사,전라북도 부안군 진서면 내소사로 243,0.9411764705882352,35.617773,126.58724
공작도시,뮤지엄 산,강원도 원주시 지정면 오크밸리2길 260,0.7647058823529411,37.418903,127.82302
겨울연가,남이섬,강원도 춘천시 남산면 남이섬길 1,0.6666666666666666,37.789935,127.52581
한 번 다녀왔습니다,태화강 국가정원,울산광역시 중구 태화강국가정원길 154,0.8461538461538461,35.547724,129.296188
따뜻한 말 한마디,장사도 해상공원 까멜리아,경상남도 통영시 한산면 장사도길 55,0.8,34.713673,128.55885
미남이시네요,공세리성당,충청남도 아산시 인주면 공세리성당길 10,0.8888888888888888,36.883404,126.914041
나의 나라,궁남지,충청남도 부여군 부여읍 궁남로 52,0.9333333333333332,36.269619,126.91224
나빌레라,합천 영상 테마파크,경상남도 합천군 용주면 합천호수로 757,0.75,35.5489346,128.072475
호텔 델루나,목포근대역사관 1관,전라남도 목포시 영산로29번길 6,0.8947368421052632,34.7877511,126.382161
나의 나라,성흥산 사랑나무,충청남도 부여군 임천면 성흥로97번길 167,0.7333333333333333,36.1971825,126.898347
나의 나라,반곡지,경상북도 경산시 남산면 반곡리 246,0.8461538461538461,35.780498,128.806454
간택 - 여인들의 전쟁,광한루원,전라북도 남원시 요천로 1447,1.0,35.403918,127.379758
화랑,한화리조트 설악 쏘라노,강원도 속초시 미시령로2983번길 111,0.9444444444444444,38.210401,128.528442
화랑,해양드라마세트장,경상남도 창원시 마산합포구 구산면 석고리 산183-2,0.6666666666666666,35.109907,128.541331
화랑,라궁,경상북도 경주시 엑스포로 55-12,1.0,35.834261,129.296769
나의 나라,성흥산 사랑나무,충청남도 부여군 임천면 성흥로97번길 167,0.7333333333333333,36.1971825,126.898347
달의 연인 - 보보경심 려,온달관광지,충청북도 단양군 영춘면 온달로 23,0.6153846153846154,37.0628902,128.49172
화양연화,흥남해수욕장,경상남도 거제시 장목면 흥남길 46,0.6428571428571429,34.960061,128.71505
화양연화,화본역,경상북도 군위군 산성면 산성가음로 711-9,0.6666666666666666,36.12695,128.69491
사이코지만 괜찮아,옥정호,전라북도 임실군 운암면 운종리 473-9,1.0,35.602023,127.11288
미스터 션샤인,문화공감수정,부산광역시 동구 홍곡로 75,0.9333333333333332,35.125713,129.042622
쌍갑포차,고석정,강원도 철원군 동송읍 태봉로 1825,0.6923076923076923,38.186301,127.287536
나의 나라,성흥산 사랑나무,충청남도 부여군 임천면 성흥로97번길 167,0.7333333333333333,36.1971825,126.898347
달의 연인 - 보보경심 려,백제문화단지,충청남도 부여군 규암면 백제문로 455,0.7692307692307693,36.3069,126.9066
나의 나라,궁남지,충청남도 부여군 부여읍 궁남로 52,0.9333333333333332,36.269619,126.91224
나의 나라,성흥산 사랑나무,충청남도 부여군 임천면 성흥로97번길 167,0.7333333333333333,36.1971825,126.898347
검법남녀 2,부용대,경상북도 안동시 풍천면 광덕솔밭길 72,0.8333333333333334,36.542914,128.51663
힐러,청남대,충청북도 청주시 상당구 문의면 청남대길 646,0.875,36.462546,127.4906
미스터 션샤인,운보의 집,충청북도 청주시 청원구 내수읍 형동2길 92-41,0.4615384615384615,36.692197,127.5651
힘쎈여자 도봉순,쏠비치 양양,강원도 양양군 손양면 선사유적로 678,0.7333333333333333,38.0886275,128.665702
힘쎈여자 도봉순,대둔산,전라북도 완주군 운주면 산북리 611-34,0.9411764705882352,36.119945,127.323352
뷰티 인사이드,아난티 코브,부산광역시 기장군 기장읍 기장해안로 268-31,0.7692307692307693,35.200166,129.229042
모단걸,합천 영상 테마파크,(50215)경상남도 합천군 용주면 합천호수로 757,0.75,35.5489346,128.072475
발칙하게 고고,단콩,(30016)세종특별자치시 조치원읍 섭골길 35-4 단콩,0.9,36.613906,127.28924
발칙하게 고고,세종호수공원,(30106)세종특별자치시 호수공원길 155,0.75,36.497909,127.2729
발칙하게 고고,녹수원글램핑,(32500)충청남도 공주시 유구읍 금계산로 919-11,0.6666666666666666,36.62859,126.96982
미스터 션샤인,운보의 집,(28149)충청북도 청주시 청원구 내수읍 형동2길 92-41,0.4615384615384615,36.692197,127.5651
미스터 션샤인,선샤인스튜디오,(33012)충청남도 논산시 연무읍 봉황로 90,0.5714285714285714,36.102539,127.10657
미스터 션샤인,부안영상테마파크,전라북도 부안군 반석면 격포로 309-64,0.6,35.620633,126.48247
호텔 델루나,성흥산 사랑나무,(33219)충청남도 부여군 임천면 성흥로97번길 167,0.7333333333333333,36.1971825,126.898347
호텔 델루나,목포근대역사관 1관,(58729)전라남도 목포시 영산로29번길 6,0.8947368421052632,34.7877511,126.382161
부암동 복수자들,유리트리트,(25103)강원도 홍천군 서면 한서로 1468-55,0.9444444444444444,37.636579,127.63422
푸른 바다의 전설,라라무리,(25428)강원도 강릉시 연곡면 진고개로 2551-18,1.0,37.856793,128.8181
인현왕후의 남자,제주국제공항,(63115)제주특별자치도 제주시 공항로 2,0.8125,33.506548,126.49304
"단, 하나의 사랑",합덕성당,(31812)충청남도 당진시 합덕읍 합덕성당2길 22,0.9230769230769232,36.792792,126.78554
달리와 감자탕,오크밸리 리조트,(26357)강원도 원주시 지정면 오크밸리1길 66,0.7222222222222222,37.434485,127.817496
도도솔솔라라솔,청춘게스트하우스,(58726)전라남도 목포시 달성길 39,0.8,34.792199,126.37692
도도솔솔라라솔,유달산,전라남도 목포시 죽교동 산 27-1,1.0,34.789202,126.37829
도시남녀의 사랑법,이이남스튜디오,(61642)광주광역시 남구 제중로47번길 10,0.7692307692307693,35.139174,126.91284
영광의 재인,공세리성당,(31427)충청남도 아산시 인주면 공세리성당길 10,0.8888888888888888,36.883404,126.914041
돈꽃,을숙도,(49435)부산광역시 사하구 하단동 1207,1.0,35.10662,128.94309
응답하라 1988,경주역,(38147)경상북도 경주시 원화로 266,0.5555555555555556,35.844454,129.21787
응답하라 1988,동궁과 월지,(38163)경상북도 경주시 원화로 102,0.9333333333333332,35.83429,129.226584
응답하라 1988,경주신문왕릉,(38174)경상북도 경주시 배반동 453-1,1.0,35.817958,129.24609
아스달 연대기,반곡지,(38571)경상북도 경산시 남산면 반곡리 246,0.8461538461538461,35.780498,128.806454
사이코지만 괜찮아,심곡항,(25632)강원도 강릉시 강동면 심곡리 157-1,0.6,37.665245,129.053082
응답하라 1988,얄개분식,(31960)충청남도 서산시 해미면 읍성마을4길 24,0.9090909090909092,36.710661,126.54614
사생활,익산 교도소 세트장,(54505)전라북도 익산시 성당면 함낭로 207,0.8333333333333334,36.069334,126.93158
태양의 후예,태양의후예 태백세트장,(26029)강원도 태백시 통동 산 67-38,0.8333333333333334,37.154824,129.04035
태양의 후예,삼탄아트마인,(26157)강원도 정선군 고한읍 함백산로 1445-44,0.7894736842105263,37.185266,128.88212
인현왕후의 남자,제주국제공항,(63115)제주특별자치도 제주시 공항로 2,0.8125,33.506548,126.49304
꽃보다 남자,설악해변,(25004)강원도 양양군 강현면 뒷나루2길 5-8,0.8571428571428571,38.131216,128.62292
내일 그대와,뮤지엄 산,(26357)강원도 원주시 지정면 오크밸리2길 260,0.7647058823529411,37.418903,127.82302
푸른 바다의 전설,라라무리,(25428)강원도 강릉시 연곡면 진고개로 2551-18,1.0,37.856793,128.8181
남자친구,롯데리조트 속초,(24900)강원도 속초시 대포항길 186,0.875,38.180679,128.61177
열두밤,정동진역,(25631)강원도 강릉시 강동면 정동역길 17,1.0,37.69142,129.0329
복수가 돌아왔다,중앙탑 사적공원,(27447)충청북도 충주시 중앙탑면 중앙탑길 112-28 일원,0.9230769230769232,37.016768,127.8665
해치,궁남지,(33165)충청남도 부여군 부여읍 궁남로 52,0.9333333333333332,36.269619,126.91224
영광의 재인,공세리성당,(31427)충청남도 아산시 인주면 공세리성당길 10,0.8888888888888888,36.883404,126.914041
함부로 애틋하게,장사도 해상공원 까멜리아,(53094)경상남도 통영시 한산면 장사도길 55,0.8,34.713673,128.55885
(아는 건 별로 없지만) 가족입니다,파도리해수욕장,(32124)충청남도 태안군 소원면 파도길 63-12,0.6,36.738979,126.13356
(아는 건 별로 없지만) 가족입니다,고흥우주발사전망대,(59521)전라남도 고흥군 영남면 해맞이로 840,0.5833333333333334,34.585051,127.49236
알함브라 궁전의 추억,씨마크 호텔,(25460)강원도 강릉시 해안로406번길 2,0.7142857142857143,37.79799,128.9154
포레스트,월정사,(25318)강원도 평창군 진부면 오대산로 374-8,1.0,37.731807,128.592508
사생활,익산 교도소 세트장,(54505)전라북도 익산시 성당면 함낭로 207,0.8333333333333334,36.069334,126.93158
"단, 하나의 사랑",합덕성당,(31812)충청남도 당진시 합덕읍 합덕성당2길 22,0.9230769230769232,36.792792,126.78554
병원선,대우병원,(53317)경상남도 거제시 두모길 16,0.4375,34.871977,128.72219
달의 연인 - 보보경심 려,아홉산숲,(46050)부산광역시 기장군 철마면 웅천리 520-10,0.4666666666666667,35.2879959,129.169638
달의 연인 - 보보경심 려,사성암,(57632)전라남도 구례군 문척면 사성암길 303,0.8333333333333334,35.180003,127.4806
모단걸,합천 영상 테마파크,(50215)경상남도 합천군 용주면 합천호수로 757,0.75,35.5489346,128.072475
달의 연인 - 보보경심 려,광한루원,(55776)전라북도 남원시 요천로 1447,1.0,35.403918,127.379758
달의 연인 - 보보경심 려,내소사,(56344)전라북도 부안군 진서면 내소사로 243,0.9411764705882352,35.617773,126.58724
달의 연인 - 보보경심 려,백제문화단지,(33115)충청남도 부여군 규암면 백제문로 455,0.7692307692307693,36.3069,126.9066
더 케이투,기지포해수욕장,(32162)충청남도 태안군 안면읍 해안관광로 745-19,0.6428571428571429,36.562608,126.32187
사생활,익산 교도소 세트장,(54505)전라북도 익산시 성당면 함낭로 207,0.8333333333333334,36.069334,126.93158
사생활,익산 교도소 세트장,(54505)전라북도 익산시 성당면 함낭로 207,0.8333333333333334,36.069334,126.93158
달의 연인 - 보보경심 려,부용대,(36757)경상북도 안동시 풍천면 광덕솔밭길 72,0.8333333333333334,36.542914,128.51663
아스달 연대기,반곡지,(38571)경상북도 경산시 남산면 반곡리 246,0.8461538461538461,35.780498,128.806454
호텔 델루나,성흥산 사랑나무,(33219)충청남도 부여군 임천면 성흥로97번길 167,0.7333333333333333,36.1971825,126.898347
크로스,미즈제일여성병원,(34188)대전광역시 유성구 계룡로 126,0.15,36.352533,127.3443
쌍갑포차,고석정,(24023)강원도 철원군 동송읍 태봉로 1825,0.6923076923076923,38.186301,127.287536
사랑비,순천드라마촬영장,(57972)전라남도 순천시 비례골길 24,0.8888888888888888,34.957729,127.53832
사랑비,쎄라비음악다방,(41931)대구광역시 중구 국채보상로102길 60,1.0,35.86789,128.5844
질투의 화신,대천해수욕장,(33489)충청남도 보령시 머드로 123,0.7777777777777778,36.313427,126.51139
포레스트,월정사,(25318)강원도 평창군 진부면 오대산로 374-8,1.0,37.731807,128.592508
찬란한 유산,묵호등대전망대,(25717)강원도 동해시 해맞이길 289,1.0,37.554268,129.1185
아스달 연대기,반곡지,(38571)경상북도 경산시 남산면 반곡리 246,0.8461538461538461,35.780498,128.806454
달의 연인 - 보보경심 려,광한루원,(55776)전라북도 남원시 요천로 1447,1.0,35.403918,127.379758
사생활,익산 교도소 세트장,(54505)전라북도 익산시 성당면 함낭로 207,0.8333333333333334,36.069334,126.93158
포레스트,월정사,(25318)강원도 평창군 진부면 오대산로 374-8,1.0,37.731807,128.592508
풍선껌,강문해변,(25467)강원도 강릉시 창해로350번길 5,0.9285714285714286,37.79663,128.917612
풍선껌,대관령 양떼목장,(25342)강원도 평창군 대관령면 대관령마루길 483-32,1.0,37.689736,128.753045
사이코지만 괜찮아,심곡항,(25632)강원도 강릉시 강동면 심곡리 157-1,0.6,37.665245,129.053082
모단걸,합천 영상 테마파크,(50215)경상남도 합천군 용주면 합천호수로 757,0.75,35.5489346,128.072475
시간,파크 하얏트 부산,(48120)부산광역시 해운대구 마린시티1로 51,0.7368421052631579,35.15657,129.1419
화양연화,흥남해수욕장,(53202)경상남도 거제시 장목면 흥남길 46,0.6428571428571429,34.960061,128.71505
화양연화,화본역,경상북도 군위군 산성면 산성가음로 711-9,0.6666666666666666,36.12695,128.69491
천국의 계단,경강역 (폐역),(24464)강원도 춘천시 남산면 서백길 62-52,1.0,37.842858,127.55054
화랑,온달관광지,(27020)충청북도 단양군 영춘면 온달로 23,0.6153846153846154,37.0628902,128.49172
사이코지만 괜찮아,옥정호,(55906)전라북도 임실군 운암면 운종리 473-9,1.0,35.602023,127.11288
"사임당, 빛의 일기",하슬라아트월드,(25631)강원도 강릉시 강동면 율곡로 1441,0.6363636363636364,37.706127,129.00911
아이언맨,사우스케이프오너스클럽,(52455)경상남도 남해군 창선면 흥선로 1545,0.6153846153846154,34.836501,128.07449
사이코지만 괜찮아,사니다카페,(26303)강원도 원주시 호저면 칠봉로 109-128,0.3888888888888889,37.406814,127.91437
꽃보다 남자,설악해변,(25004)강원도 양양군 강현면 뒷나루2길 5-8,0.8571428571428571,38.131216,128.62292
해치,궁남지,(33165)충청남도 부여군 부여읍 궁남로 52,0.9333333333333332,36.269619,126.91224
철인왕후,병산서원,(36760)경상북도 안동시 풍천면 병산길 386,0.7777777777777778,36.54056,128.55275
사이코지만 괜찮아,옥정호,(55906)전라북도 임실군 운암면 운종리 473-9,1.0,35.602023,127.11288
화유기,문화공감수정,(48785)부산광역시 동구 홍곡로 75,0.9333333333333332,35.125713,129.042622
어느 날 우리 집 현관으로 멸망이 들어왔다,경주월드,(38117)경상북도 경주시 보문로 544,0.9444444444444444,35.835594,129.282884
어게인 마이 라이프,베어트리파크,(30009)세종특별자치시 전동면 신송로 217,0.25,36.670592,127.209267
시지프스: the myth,벡스코,(48060)부산광역시 해운대구 APEC로 55,0.8571428571428571,35.1688706,129.135456
달의 연인 - 보보경심 려,아홉산숲,(46050)부산광역시 기장군 철마면 웅천리 520-10,0.4666666666666667,35.2879959,129.169638
달리와 감자탕,오크밸리 리조트,(26357)강원도 원주시 지정면 오크밸리1길 66,0.7222222222222222,37.434485,127.817496
미스터 션샤인,부안영상테마파크,전라북도 부안군 반석면 격포로 309-64,0.6,35.620633,126.48247
달의 연인 - 보보경심 려,광한루원,(55776)전라북도 남원시 요천로 1447,1.0,35.403918,127.379758
달의 연인 - 보보경심 려,내소사,(56344)전라북도 부안군 진서면 내소사로 243,0.9411764705882352,35.617773,126.58724
모단걸,합천 영상 테마파크,(50215)경상남도 합천군 용주면 합천호수로 757,0.75,35.5489346,128.072475
사생활,익산 교도소 세트장,(54505)전라북도 익산시 성당면 함낭로 207,0.8333333333333334,36.069334,126.93158
시그널,국립법무병원,충청남도 공주시 반포면 봉곡리 반포초교길 253,0.2,36.412694,127.2387
쌍갑포차,고석정,(24023)강원도 철원군 동송읍 태봉로 1825,0.6923076923076923,38.186301,127.287536
호텔 델루나,성흥산 사랑나무,(33219)충청남도 부여군 임천면 성흥로97번길 167,0.7333333333333333,36.1971825,126.898347
응답하라 1988,동궁과 월지,(38163)경상북도 경주시 원화로 102,0.9333333333333332,35.83429,129.226584
뷰티 인사이드,아난티 코브,(46083)부산광역시 기장군 기장읍 기장해안로 268-31,0.7692307692307693,35.200166,129.229042
첫사랑은 처음이라서,전주고속버스터미널,(54933)전라북도 전주시 덕진구 가리내로 70,0.8333333333333334,35.834512,127.12918
오월의 청춘,남원랜드,(55795)전라북도 남원시 양림길 58-13,1.0,35.40303,127.3924
사랑비,순천드라마촬영장,(57972)전라남도 순천시 비례골길 24,0.8888888888888888,34.957729,127.53832
모단걸,합천 영상 테마파크,(50215)경상남도 합천군 용주면 합천호수로 757,0.75,35.5489346,128.072475
오월의 청춘,부강성당,(30075)세종특별자치시 부강면 부강4길 33,1.0,36.530588,127.36972
사랑비,쎄라비음악다방,(41931)대구광역시 중구 국채보상로102길 60,1.0,35.86789,128.5844
오월의 청춘,가실성당,(39912)경상북도 칠곡군 왜관읍 가실1길 1,0.9,35.9366,128.4053
미안하다 사랑한다,신성리 갈대밭,(33625)충청남도 서천군 한산면 신성리 125-1,0.6875,36.068336,126.86074
빈센조,대구오페라하우스,(41585)대구광역시 북구 호암로 15,1.0,35.88348,128.59216
월간 집,황리단길,(38167)경상북도 경주시 태종로 746,0.7142857142857143,35.836842,129.20966
세상 어디에도 없는 착한남자,동피랑 벽화마을,(53052)경상남도 통영시 동피랑1길 6-18,0.7692307692307693,34.845641,128.427523
달의 연인 - 보보경심 려,광한루원,(55776)전라북도 남원시 요천로 1447,1.0,35.403918,127.379758
미스터 션샤인,황매산,경상남도 산청군 차황면 법평리 산 1,0.8235294117647058,35.486018,127.97475
미스터 션샤인,만휴정,(36735)경상북도 안동시 길안면 묵계하리길 42,0.6666666666666666,36.41043,128.9099
영광의 재인,공세리성당,(31427)충청남도 아산시 인주면 공세리성당길 10,0.8888888888888888,36.883404,126.914041
옥탑방 왕세자,마이산탑사,(55450)전라북도 진안군 마령면 마이산남로 367,0.9411764705882352,35.758494,127.411297
달의 연인 - 보보경심 려,광한루원,(55776)전라북도 남원시 요천로 1447,1.0,35.403918,127.379758
달의 연인 - 보보경심 려,광한루원,(55776)전라북도 남원시 요천로 1447,1.0,35.403918,127.379758
어느 날 우리 집 현관으로 멸망이 들어왔다,외돌개,(63594)제주특별자치도 서귀포시 서홍동 791,1.0,33.239982,126.545446
어느 날 우리 집 현관으로 멸망이 들어왔다,한담해안산책로,(63034)제주특별자치도 제주시 애월읍 곽지리 1359,0.7142857142857143,33.45463,126.3074
모단걸,합천 영상 테마파크,(50215)경상남도 합천군 용주면 합천호수로 757,0.75,35.5489346,128.072475
장난스런 키스,씨에스호텔앤리조트,(63547)제주특별자치도 서귀포시 중문관광로 196,0.6470588235294118,33.243147,126.42002
장미빛 연인들,남이섬,(24464)강원도 춘천시 남산면 남이섬길 1,0.6666666666666666,37.789935,127.52581
영광의 재인,공세리성당,(31427)충청남도 아산시 인주면 공세리성당길 10,0.8888888888888888,36.883404,126.914041
호텔 델루나,성흥산 사랑나무,(33219)충청남도 부여군 임천면 성흥로97번길 167,0.7333333333333333,36.1971825,126.898347
미스터 션샤인,황매산,경상남도 산청군 차황면 법평리 산 1,0.8235294117647058,35.486018,127.97475
달의 연인 - 보보경심 려,부용대,(36757)경상북도 안동시 풍천면 광덕솔밭길 72,0.8333333333333334,36.542914,128.51663
호텔 델루나,성흥산 사랑나무,(33219)충청남도 부여군 임천면 성흥로97번길 167,0.7333333333333333,36.1971825,126.898347
옷소매 붉은 끝동,문헌서원,(33626)충청남도 서천군 기산면 서원로172번길 66,0.9090909090909092,36.0918,126.7855
달의 연인 - 보보경심 려,광한루원,(55776)전라북도 남원시 요천로 1447,1.0,35.403918,127.379758
달의 연인 - 보보경심 려,백제문화단지,(33115)충청남도 부여군 규암면 백제문로 455,0.7692307692307693,36.3069,126.9066
해치,궁남지,(33165)충청남도 부여군 부여읍 궁남로 52,0.9333333333333332,36.269619,126.91224
달의 연인 - 보보경심 려,광한루원,(55776)전라북도 남원시 요천로 1447,1.0,35.403918,127.379758
사생활,익산 교도소 세트장,(54505)전라북도 익산시 성당면 함낭로 207,0.8333333333333334,36.069334,126.93158
미안하다 사랑한다,신성리 갈대밭,(33625)충청남도 서천군 한산면 신성리 125-1,0.6875,36.068336,126.86074
사생활,익산 교도소 세트장,(54505)전라북도 익산시 성당면 함낭로 207,0.8333333333333334,36.069334,126.93158
힘쎈여자 도봉순,쏠비치 양양,(25042)강원도 양양군 손양면 선사유적로 678,0.7333333333333333,38.0886275,128.665702
힐러,청남대,(28210)충청북도 청주시 상당구 문의면 청남대길 646,0.875,36.462546,127.4906
미스터 션샤인,운보의 집,(28149)충청북도 청주시 청원구 내수읍 형동2길 92-41,0.4615384615384615,36.692197,127.5651
부암동 복수자들,유리트리트,(25103)강원도 홍천군 서면 한서로 1468-55,0.9444444444444444,37.636579,127.63422
호텔 델루나,성흥산 사랑나무,(33219)충청남도 부여군 임천면 성흥로97번길 167,0.7333333333333333,36.1971825,126.898347
왜 오수재인가,강남1984,(24376)강원도 춘천시 남춘로36번길 8,0.7333333333333333,37.86394,127.7322
달의 연인 - 보보경심 려,광한루원,(55776)전라북도 남원시 요천로 1447,1.0,35.403918,127.379758
인현왕후의 남자,제주국제공항,(63115)제주특별자치도 제주시 공항로 2,0.8125,33.506548,126.49304
시크릿 가든,롯데호텔 제주,(63535)제주특별자치도 서귀포시 중문관광로72번길 35,0.875,33.2483112,126.410594
저글러스,연미스튜디오,(55100)전라북도 전주시 완산구 팔달로 22-2,1.0,35.804675,127.14935
내일 그대와,뮤지엄 산,(26357)강원도 원주시 지정면 오크밸리2길 260,0.7647058823529411,37.418903,127.82302
시크릿 가든,포레스트 리솜,(27105)충청북도 제천시 백운면 금봉로 365,0.8125,37.15796,128.04624
장난스런 키스,씨에스호텔앤리조트,(63547)제주특별자치도 서귀포시 중문관광로 196,0.6470588235294118,33.243147,126.42002
최강 배달꾼,거진해수욕장,(24713)강원도 고성군 거진읍 거진리 22-59,0.6363636363636364,38.443074,128.45517
질투의 화신,대천해수욕장,(33489)충청남도 보령시 머드로 123,0.7777777777777778,36.313427,126.51139
유미의 세포들,엄마손막국수,(25464)강원도 강릉시 운정길 40,1.0,37.783952,128.88272
유미의 세포들,스카이베이호텔 경포,(25460)강원도 강릉시 해안로 476,0.6666666666666666,37.804363,128.90769
아는 와이프,낙산 해수욕장,(25009)강원도 양양군 강현면 해맞이길 59,1.0,38.1164806,128.63426
사랑의 불시착,청산수목원,충청남도 태안군 연꽃길 70,0.5294117647058824,36.68861,126.2968
쇼핑왕 루이,동백섬,(48100)부산광역시 해운대구 동백로 99,0.7857142857142857,35.154498,129.152555
쇼핑왕 루이,보수동 책방 골목,(48967)부산광역시 중구 대청로 67-1,0.8666666666666667,35.10332,129.026803
쇼핑왕 루이,광안리해수욕장,(48303)부산광역시 수영구 광안해변로 219,1.0,35.153308,129.118862
쇼핑왕 루이,천마산에코하우스,(49250)부산광역시 서구 천마산로 342,1.0,35.09609,129.0174
아이언맨,사우스케이프오너스클럽,(52455)경상남도 남해군 창선면 흥선로 1545,0.6153846153846154,34.836501,128.07449
신데렐라와 네 명의 기사,각원사,(31066)충청남도 천안시 동남구 각원사길 245,0.8421052631578947,36.83441,127.1968
사생활,익산 교도소 세트장,(54505)전라북도 익산시 성당면 함낭로 207,0.8333333333333334,36.069334,126.93158
풍선껌,대관령 양떼목장,(25342)강원도 평창군 대관령면 대관령마루길 483-32,1.0,37.689736,128.753045
내일 그대와,뮤지엄 산,(26357)강원도 원주시 지정면 오크밸리2길 260,0.7647058823529411,37.418903,127.82302
미스터 션샤인,운보의 집,(28149)충청북도 청주시 청원구 내수읍 형동2길 92-41,0.4615384615384615,36.692197,127.5651
추리의 여왕,대전근현대사전시관,(34863)대전광역시 중구 중앙로 101,0.5714285714285714,36.3266855,127.420912
추리의 여왕,안도르,(34832)대전광역시 중구 선화로 148,0.875,36.331374,127.42335
달의 연인 - 보보경심 려,사성암,(57632)전라남도 구례군 문척면 사성암길 303,0.8333333333333334,35.180003,127.4806
달의 연인 - 보보경심 려,광한루원,(55776)전라북도 남원시 요천로 1447,1.0,35.403918,127.379758
세상 어디에도 없는 착한남자,동피랑 벽화마을,(53052)경상남도 통영시 동피랑1길 6-18,0.7692307692307693,34.845641,128.427523
부암동 복수자들,유리트리트,(25103)강원도 홍천군 서면 한서로 1468-55,0.9444444444444444,37.636579,127.63422
모단걸,합천 영상 테마파크,(50215)경상남도 합천군 용주면 합천호수로 757,0.75,35.5489346,128.072475
어게인 마이 라이프,베어트리파크,(30009)세종특별자치시 전동면 신송로 217,0.25,36.670592,127.209267
운명처럼 널 사랑해,곤리도,(53088)경상남도 통영시 산양읍 곤리리 174-16,1.0,34.782517,128.37111
원 더 우먼,별마로천문대,(26224)강원도 영월군 영월읍 천문대길 397,0.9285714285714286,37.198816,128.486792
추리의 여왕,대전근현대사전시관,(34863)대전광역시 중구 중앙로 101,0.5714285714285714,36.3266855,127.420912
장미빛 연인들,남이섬,(24464)강원도 춘천시 남산면 남이섬길 1,0.6666666666666666,37.789935,127.52581
계룡선녀전,밀양역,(50445)경상남도 밀양시 중앙로 62,0.4545454545454545,35.47456,128.771186
부암동 복수자들,유리트리트,(25103)강원도 홍천군 서면 한서로 1468-55,0.9444444444444444,37.636579,127.63422
계룡선녀전,부석사,(36001)경상북도 영주시 부석면 부석사로 345,0.7777777777777778,36.998776,128.68753
뷰티 인사이드,아난티 코브,(46083)부산광역시 기장군 기장읍 기장해안로 268-31,0.7692307692307693,35.200166,129.229042
세상 어디에도 없는 착한남자,동피랑 벽화마을,(53052)경상남도 통영시 동피랑1길 6-18,0.7692307692307693,34.845641,128.427523
원티드,휘게비엔씨,(25402)강원도 강릉시 주문진읍 신리천로 318-24,1.0,37.878647,128.79909
부암동 복수자들,유리트리트,(25103)강원도 홍천군 서면 한서로 1468-55,0.9444444444444444,37.636579,127.63422
유미의 세포들,스카이베이호텔 경포,(25460)강원도 강릉시 해안로 476,0.6666666666666666,37.804363,128.90769
달리와 감자탕,오크밸리 리조트,(26357)강원도 원주시 지정면 오크밸리1길 66,0.7222222222222222,37.434485,127.817496
아는 와이프,낙산 해수욕장,(25009)강원도 양양군 강현면 해맞이길 59,1.0,38.1164806,128.63426
장난스런 키스,씨에스호텔앤리조트,(63547)제주특별자치도 서귀포시 중문관광로 196,0.6470588235294118,33.243147,126.42002
바람의 화원,경기전,(55042)전라북도 전주시 완산구 태조로 44,0.9444444444444444,35.815488,127.149771
계룡선녀전,부소산성,(33137)충청남도 부여군 부여읍 부소로 15,0.8461538461538461,36.287052,126.91527
구미호뎐,상족암군립공원,(52963)경상남도 고성군 하이면 덕명리 50-1,1.0,34.904154,128.15034
계룡선녀전,신원사,(32619)충청남도 공주시 계룡면 신원사동길 1,0.8888888888888888,36.335189,127.18399
장미빛 연인들,남이섬,(24464)강원도 춘천시 남산면 남이섬길 1,0.6666666666666666,37.789935,127.52581
세상 어디에도 없는 착한남자,동피랑 벽화마을,(53052)경상남도 통영시 동피랑1길 6-18,0.7692307692307693,34.845641,128.427523
겨울연가,외도 보타니아,(53329)경상남도 거제시 일운면 외도길 17,0.5,34.769699,128.70886
내일 그대와,뮤지엄 산,(26357)강원도 원주시 지정면 오크밸리2길 260,0.7647058823529411,37.418903,127.82302
바람의 화원,경기전,(55042)전라북도 전주시 완산구 태조로 44,0.9444444444444444,35.815488,127.149771
장난스런 키스,씨에스호텔앤리조트,(63547)제주특별자치도 서귀포시 중문관광로 196,0.6470588235294118,33.243147,126.42002
구경이,소금산 출렁다리,(26359)강원도 원주시 지정면 소금산길 12,0.8333333333333334,37.368213,127.824977
응답하라 1988,동궁과 월지,(38163)경상북도 경주시 원화로 102,0.9333333333333332,35.83429,129.226584
계룡선녀전,목포역,(58730)전라남도 목포시 영산로 98,0.6153846153846154,34.791049,126.38661
장미빛 연인들,남이섬,(24464)강원도 춘천시 남산면 남이섬길 1,0.6666666666666666,37.789935,127.52581
사생활,익산 교도소 세트장,(54505)전라북도 익산시 성당면 함낭로 207,0.8333333333333334,36.069334,126.93158
경우의 수,달책빵,(63360)제주특별자치도 제주시 구좌읍 대수길 10-12,0.7894736842105263,33.536409,126.83943
경우의 수,술의 식물원,(63355)제주특별자치도 제주시 구좌읍 중산간동로 2253,0.6,33.471779,126.78376
경우의 수,책방소리소문,(63005)제주특별자치도 제주시 한경면 저지동길 8-31,0.875,33.358009,126.27169
경우의 수,서쪽가게,(63011)제주특별자치도 제주시 한림읍 한림로 372-7,0.7058823529411765,33.393359,126.24059
경우의 수,소심한책방,(63364)제주특별자치도 제주시 구좌읍 종달동길 29-6,0.8235294117647058,33.491445,126.90309
경우의 수,용눈이오름,제주특별자치도 제주시 구좌읍 종달리 산 38,0.9375,33.458681,126.83005
이웃집 꽃미남,동산포해변 야영장,(25053)강원도 양양군 현남면 동산리 90-35,0.5,37.97813,128.75952
찬란한 유산,묵호등대전망대,(25717)강원도 동해시 해맞이길 289,1.0,37.554268,129.1185
풍선껌,대관령 양떼목장,(25342)강원도 평창군 대관령면 대관령마루길 483-32,1.0,37.689736,128.753045
멜랑꼴리아,국립중앙과학관,(34143)대전광역시 유성구 대덕대로 481,0.75,36.376229,127.37525
인현왕후의 남자,제주국제공항,(63115)제주특별자치도 제주시 공항로 2,0.8125,33.506548,126.49304
멜랑꼴리아,아르떼뮤지엄 제주,(63038)제주특별자치도 제주시 애월읍 어림비로 478,0.8,33.396696,126.34505
원티드,휘게비엔씨,(25402)강원도 강릉시 주문진읍 신리천로 318-24,1.0,37.878647,128.79909
달리와 감자탕,오크밸리 리조트,(26357)강원도 원주시 지정면 오크밸리1길 66,0.7222222222222222,37.434485,127.817496
인현왕후의 남자,제주국제공항,(63115)제주특별자치도 제주시 공항로 2,0.8125,33.506548,126.49304
맨도롱 또똣,봄날,(63043)제주특별자치도 제주시 애월읍 애월로1길 25,1.0,33.462462,126.309591
맨홀-이상한 나라의 필,등명해변,(25631)강원도 강릉시 강동면 정동진리 440-7,0.8125,37.704451,129.01646
아이언맨,사우스케이프오너스클럽,(52455)경상남도 남해군 창선면 흥선로 1545,0.6153846153846154,34.836501,128.07449
유미의 세포들,제일반점,(33175)충청남도 부여군 초촌면 초촌로6번길 13,0.5454545454545454,36.26299,127.01996
사랑의 온도,순천만습지,(58027)전라남도 순천시 순천만길 513-25,0.8125,34.88597,127.50903
달의 연인 - 보보경심 려,부용대,(36757)경상북도 안동시 풍천면 광덕솔밭길 72,0.8333333333333334,36.542914,128.51663
사랑의 온도,향일암,(59778)전라남도 여수시 돌산읍 향일암로 60,0.7647058823529411,34.591599,127.80385
인현왕후의 남자,제주국제공항,(63115)제주특별자치도 제주시 공항로 2,0.8125,33.506548,126.49304
모단걸,합천 영상 테마파크,(50215)경상남도 합천군 용주면 합천호수로 757,0.75,35.5489346,128.072475
달리와 감자탕,오크밸리 리조트,(26357)강원도 원주시 지정면 오크밸리1길 66,0.7222222222222222,37.434485,127.817496
맨홀-이상한 나라의 필,등명해변,(25631)강원도 강릉시 강동면 정동진리 440-7,0.8125,37.704451,129.01646
그냥 사랑하는 사이,임권택영화박물관,부산광역시 해운대구 우동 센텀중앙로 55,1.0,35.173219,129.12853
한 번 다녀왔습니다,태화강 국가정원,울산광역시 중구 태화강국가정원길 154,0.8461538461538461,35.547724,129.296188
그래서 나는 안티팬과 결혼했다,백도해변,(24752)강원도 고성군 죽왕면 문암진리 19-22,0.5714285714285714,38.301267,128.5463
응답하라 1988,경주역,(38147)경상북도 경주시 원화로 266,0.5555555555555556,35.844454,129.21787
여신강림,설리스카이워크,(52441)경상남도 남해군 미조면 송정리 산352-4,0.75,34.70878,128.0226
제3의 매력,감천문화마을,(49368)부산광역시 사하구 감내2로 203,0.7272727272727273,35.097412,129.010584
태양의 후예,삼탄아트마인,(26157)강원도 정선군 고한읍 함백산로 1445-44,0.7894736842105263,37.185266,128.88212
달의 연인 - 보보경심 려,광한루원,(55776)전라북도 남원시 요천로 1447,1.0,35.403918,127.379758
크레이지 러브,강릉역,(25491)강원도 강릉시 용지로 176,0.8,37.764117,128.89882
달리와 감자탕,오크밸리 리조트,(26357)강원도 원주시 지정면 오크밸리1길 66,0.7222222222222222,37.434485,127.817496
사생활,익산 교도소 세트장,(54505)전라북도 익산시 성당면 함낭로 207,0.8333333333333334,36.069334,126.93158
사내맞선,듀레베이커리 호암점,(27502)충청북도 충주시 중원대로 3250,0.8823529411764706,36.958536,127.92437
장미빛 연인들,남이섬,(24464)강원도 춘천시 남산면 남이섬길 1,0.6666666666666666,37.789935,127.52581
세상에서 제일 예쁜 내 딸,거례리 사랑나무,(24142)강원도 화천군 하남면 거례리 484-2,1.0,38.07271,127.6875
모단걸,합천 영상 테마파크,(50215)경상남도 합천군 용주면 합천호수로 757,0.75,35.5489346,128.072475
함부로 애틋하게,장사도 해상공원 까멜리아,(53094)경상남도 통영시 한산면 장사도길 55,0.8,34.713673,128.55885
런온,동해망상해변한옥촌,(25700)강원도 동해시 동해대로 6370,0.5,37.602611,129.07614
땐뽀걸즈,바람의언덕,(53334)경상남도 거제시 남부면 갈곶리 산 14-47 도장포마을,0.6428571428571429,34.74336,128.6633
쇼핑왕 루이,광안리해수욕장,(48303)부산광역시 수영구 광안해변로 219,1.0,35.153308,129.118862
달의 연인 - 보보경심 려,백제문화단지,(33115)충청남도 부여군 규암면 백제문로 455,0.7692307692307693,36.3069,126.9066
런온,전주영화의거리,전라북도 전주시 완산구 고사동 전주객사4길,1.0,35.821257,127.14415
땐뽀걸즈,고현버스터미널,(53251)경상남도 거제시 고현천로 10,0.5,34.89104,128.62426
인현왕후의 남자,제주국제공항,(63115)제주특별자치도 제주시 공항로 2,0.8125,33.506548,126.49304
해치,궁남지,(33165)충청남도 부여군 부여읍 궁남로 52,0.9333333333333332,36.269619,126.91224
드림,죽성드림세트장,(46078)부산광역시 기장군 기장읍 죽성리 134-7,0.9285714285714286,35.240998,129.24845
런온,이가리 닻전망대,경상북도 포항시 북구 청하면 이가리 산 67-3,1.0,36.188061,129.37937
악의 마음을 읽는 자들,직탕폭포,(24023)강원도 철원군 동송읍 장흥리 336-1,0.6666666666666666,38.20945,127.2655
악의 마음을 읽는 자들,의림지,(27137)충청북도 제천시 모산동 241,0.75,37.17197,128.2093
사생활,익산 교도소 세트장,(54505)전라북도 익산시 성당면 함낭로 207,0.8333333333333334,36.069334,126.93158
사생활,익산 교도소 세트장,(54505)전라북도 익산시 성당면 함낭로 207,0.8333333333333334,36.069334,126.93158
스물다섯 스물하나,맹꽁이 오락실,(55040)전라북도 전주시 완산구 동문길 6,1.0,35.8195707,127.153426
달의 연인 - 보보경심 려,부용대,(36757)경상북도 안동시 풍천면 광덕솔밭길 72,0.8333333333333334,36.542914,128.51663
달의 연인 - 보보경심 려,광한루원,(55776)전라북도 남원시 요천로 1447,1.0,35.403918,127.379758
사생활,익산 교도소 세트장,(54505)전라북도 익산시 성당면 함낭로 207,0.8333333333333334,36.069334,126.93158
시크릿 가든,롯데호텔 제주,(63535)제주특별자치도 서귀포시 중문관광로72번길 35,0.875,33.2483112,126.410594
인현왕후의 남자,제주국제공항,(63115)제주특별자치도 제주시 공항로 2,0.8125,33.506548,126.49304
달의 연인 - 보보경심 려,부용대,(36757)경상북도 안동시 풍천면 광덕솔밭길 72,0.8333333333333334,36.542914,128.51663
해치,궁남지,(33165)충청남도 부여군 부여읍 궁남로 52,0.9333333333333332,36.269619,126.91224
조선로코 녹두전,수선루,(55449)전라북도 진안군 마령면 강정리 산 57,1.0,35.745616,127.34532
가면,메타세쿼이아 가로수길,전라남도 담양군 담양읍 학동리 633,0.8823529411764706,35.3251724,127.009247
가면,죽녹원,(57336)전라남도 담양군 담양읍 죽녹원로 119,1.0,35.326613,126.985409
가면,담양 관방제림,(57339)전라남도 담양군 담양읍 객사7길 37,1.0,35.3234778,126.991321
부암동 복수자들,유리트리트,(25103)강원도 홍천군 서면 한서로 1468-55,0.9444444444444444,37.636579,127.63422
아름다웠던 우리에게,탑정호수변생태공원,(32916)충청남도 논산시 부적면 충곡리 287-8,1.0,36.19184,127.1724
로봇이 아니야,여차몽돌해수욕장,(53334)경상남도 거제시 남부면 여차길 22,0.75,34.713819,128.62677
로봇이 아니야,수산자연산횟집,(53332)경상남도 거제시 동부면 거제대로 1080-12,0.8181818181818182,34.777783,128.6529
로봇이 아니야,거제수협구조라공판장,(53329)경상남도 거제시 일운면 구조라로 59,1.0,34.804164,128.69623
아는 와이프,낙산 해수욕장,(25009)강원도 양양군 강현면 해맞이길 59,1.0,38.1164806,128.63426
레버리지:사기조작단,제주신화월드,(63522)제주특별자치도 서귀포시 안덕면 신화역사로304번길 38,1.0,33.302652,126.31653
역도요정 김복주,옥순봉,(27219)충청북도 제천시 수산면 옥순봉로 342,0.8,36.93968,128.2393
로망스,여좌천,(51695)경상남도 창원시 진해구 여좌동 217,1.0,35.154337,128.65927
어게인 마이 라이프,베어트리파크,(30009)세종특별자치시 전동면 신송로 217,0.25,36.670592,127.209267
시크릿 가든,포레스트 리솜,(27105)충청북도 제천시 백운면 금봉로 365,0.8125,37.15796,128.04624
시크릿 가든,롯데호텔 제주,(63535)제주특별자치도 서귀포시 중문관광로72번길 35,0.875,33.2483112,126.410594
호텔 델루나,성흥산 사랑나무,(33219)충청남도 부여군 임천면 성흥로97번길 167,0.7333333333333333,36.1971825,126.898347
(아는 건 별로 없지만) 가족입니다,파도리해수욕장,(32124)충청남도 태안군 소원면 파도길 63-12,0.6,36.738979,126.13356
마인,세이지우드 홍천,(25160)강원도 홍천군 두촌면 광석로 898-160,0.9,37.886097,128.11847
달리와 감자탕,오크밸리 리조트,(26357)강원도 원주시 지정면 오크밸리1길 66,0.7222222222222222,37.434485,127.817496
악의 마음을 읽는 자들,직탕폭포,(24023)강원도 철원군 동송읍 장흥리 336-1,0.6666666666666666,38.20945,127.2655
펜트하우스 3,부산역,(48760)부산광역시 동구 중앙대로 206,0.6875,35.115181,129.0412
모단걸,합천 영상 테마파크,(50215)경상남도 합천군 용주면 합천호수로 757,0.75,35.5489346,128.072475
꽃보다 남자,아난티 남해,(52433)경상남도 남해군 남면 남서대로1179번길 40-109,0.8461538461538461,34.776699,127.85179
꽃보다 남자,그랜드머큐어앰배서더 창원,(51408)경상남도 창원시 성산구 원이대로 332,0.5454545454545454,35.239262,128.65532
어게인 마이 라이프,베어트리파크,(30009)세종특별자치시 전동면 신송로 217,0.25,36.670592,127.209267
겨울연가,외도 보타니아,(53329)경상남도 거제시 일운면 외도길 17,0.5,34.769699,128.70886
날씨가 좋으면 찾아가겠어요,예미역,(26142)강원도 정선군 신동읍 함백로 55,1.0,37.212373,128.64813
나의 해방일지,성환역,(31011)충청남도 천안시 서북구 성환읍 성환1로 237-5,1.0,36.915954,127.12685
날씨가 좋으면 찾아가겠어요,환벽정,충청북도 괴산군 칠성면 사은리,1.0,36.750742,127.83656
장난스런 키스,씨에스호텔앤리조트,(63547)제주특별자치도 서귀포시 중문관광로 196,0.6470588235294118,33.243147,126.42002
나빌레라,당진문예의전당,(31774)충청남도 당진시 무수동2길 25-21,0.6666666666666666,36.890144,126.63795
아스달 연대기,반곡지,(38571)경상북도 경산시 남산면 반곡리 246,0.8461538461538461,35.780498,128.806454
호텔 델루나,성흥산 사랑나무,(33219)충청남도 부여군 임천면 성흥로97번길 167,0.7333333333333333,36.1971825,126.898347
해치,궁남지,(33165)충청남도 부여군 부여읍 궁남로 52,0.9333333333333332,36.269619,126.91224
꽃보다 남자,독립기념관,충청남도 천안시 동남구 목천읍 삼방로 95,0.8125,36.783538,127.2232
나 홀로 그대,알로하서프,(25633)강원도 강릉시 옥계면 헌화로 221-4,0.4,37.635477,129.044679
사이코지만 괜찮아,심곡항,(25632)강원도 강릉시 강동면 심곡리 157-1,0.6,37.665245,129.053082
나의 아저씨,회동 솔향 캠핑장,강원도 정선군 정선읍 기리왕산로 570-5,0.8571428571428571,37.412692,128.58402
장미빛 연인들,남이섬,(24464)강원도 춘천시 남산면 남이섬길 1,0.6666666666666666,37.789935,127.52581
연애의 발견,연화도 출렁다리,(53101)경상남도 통영시 욕지면 연화리 산2,0.6666666666666666,34.638922,128.371628
함부로 애틋하게,장사도 해상공원 까멜리아,(53094)경상남도 통영시 한산면 장사도길 55,0.8,34.713673,128.55885
갯마을 차차차,사방기념공원,(37530)경상북도 포항시 북구 흥해읍 해안로 1801,0.9230769230769232,36.1646885,129.3956102
개와 늑대의 시간,스플라스 리솜,(32406)충청남도 예산군 덕산면 온천단지3로 45-7,0.8571428571428571,36.693924,126.65602
스카이캐슬,소노펠리체 빌리지 비발디파크,(25101)강원도 홍천군 서면 한치골길 541-123,0.9166666666666666,37.665888,127.68403
스물다섯 스물하나,한벽굴,전라북도 전주시 완산구 교동,1.0,35.8118781,127.1608628
라이브,중앙 경찰학교,(27495)충청북도 충주시 수안보면 수회리로 138,0.8,36.877166,127.981807
라이프 온 마스,국립해양박물관,(49111)부산광역시 영도구 해양로301번길 45,0.75,35.078654,129.080216
아는 와이프,낙산 해수욕장,(25009)강원도 양양군 강현면 해맞이길 59,1.0,38.1164806,128.63426
제3의 매력,감천문화마을,(49368)부산광역시 사하구 감내2로 203,0.7272727272727273,35.097412,129.010584
달의 연인 - 보보경심 려,아홉산숲,(46050)부산광역시 기장군 철마면 웅천리 520-10,0.4666666666666667,35.2879959,129.169638
라이프 온 마스,대전 근현대사 전시관,(34863)대전광역시 중구 중앙로 101,0.5714285714285714,36.3266855,127.420912
라이프 온 마스,양산종합운동장,(50619)경상남도 양산시 양산대로 849,1.0,35.344926,129.032214
미안하다 사랑한다,신성리 갈대밭,(33625)충청남도 서천군 한산면 신성리 125-1,0.6875,36.068336,126.86074
김비서가 왜 그럴까,3.1운동계단,(41931)대구광역시 중구 동산동 881-3,1.0,35.8672435,128.584875
김비서가 왜 그럴까,서문시장,(41926)대구광역시 중구 큰장로26길 45 서문시장,0.5384615384615384,35.868857,128.580818
여름 향기,명봉역,(59444)전라남도 보성군 노동면 예재로 384,0.5,34.827785,127.075526
그 해 우리는,온빛자연휴양림,(33026)충청남도 논산시 벌곡면 황룡재로 480-113,1.0,36.2029503,127.2520346
유미의 세포들,카페 인어,(63024)제주특별자치도 제주시 한림읍 한림해안로 584,0.8823529411764706,33.440378,126.276511
